NORAD_CAT_ID,OBJECT_NAME,OBJECT_TYPE,EPOCH,MEAN_MOTION,ECCENTRICITY,INCLINATION,RA_OF_ASC_NODE,ARG_OF_PERICENTER,MEAN_ANOMALY,BSTAR,MEAN_MOTION_DOT,MEAN_MOTION_DDOT,TLE_LINE0,TLE_LINE1,TLE_LINE2,SEMIMAJOR_AXIS,PERIOD,APOGEE,PERIGEE,DECAYED
56464.0,STARLINK-6043,PAYLOAD,2024-01-03 03:31:28,14.98325116,0.0002532,70.0,352.7439,254.6242,105.4637,-7.0944e-06,-1.78e-06,0.0,0 STARLINK-6043,1 56464U 23064S   24003.14685830 -.00000178  00000-0 -70944-5 0  9991,2 56464  70.0000 352.7439 0002532 254.6242 105.4637 14.98325116 36290,6950.208,96.107,573.833,570.313,0.0
56464.0,STARLINK-6043,PAYLOAD,2024-01-03 09:56:00,14.98325447,0.000273,69.9999,352.0712,264.2249,95.8598,-4.2568e-05,-6.01e-06,0.0,0 STARLINK-6043,1 56464U 23064S   24003.41389994 -.00000601  00000-0 -42568-4 0  9994,2 56464  69.9999 352.0712 0002730 264.2249  95.8598 14.98325447 35974,6950.207,96.107,573.969,570.175,0.0
56464.0,STARLINK-6043,PAYLOAD,2024-01-04 03:33:29,14.98330888,0.0003165,69.9996,350.2198,270.8432,89.2365,3.3147e-05,3.03e-06,0.0,0 STARLINK-6043,1 56464U 23064S   24004.14825373  .00000303  00000-0  33147-4 0  9991,2 56464  69.9996 350.2198 0003165 270.8432  89.2365 14.98330888 36446,6950.19,96.107,574.255,569.855,0.0
56464.0,STARLINK-6043,PAYLOAD,2024-01-04 08:21:53,14.98332468,0.000309,69.9998,349.715,271.8247,88.2558,5.0597e-05,5.11e-06,0.0,0 STARLINK-6043,1 56464U 23064S   24004.34853193  .00000511  00000-0  50597-4 0  9993,2 56464  69.9998 349.7150 0003090 271.8247  88.2558 14.98332468 36114,6950.185,96.107,574.198,569.903,0.0
56464.0,STARLINK-6043,PAYLOAD,2024-01-04 22:47:05,14.98329214,0.0002712,70.0002,348.2,258.9111,101.1744,4.7247e-05,4.71e-06,0.0,0 STARLINK-6043,1 56464U 23064S   24004.94937302  .00000471  00000-0  47247-4 0  9997,2 56464  70.0002 348.2000 0002712 258.9111 101.1744 14.98329214 36204,6950.195,96.107,573.945,570.175,0.0
56464.0,STARLINK-6043,PAYLOAD,2024-01-05 05:11:38,14.98328272,0.000269,70.0002,347.527,258.3342,101.7515,2.114e-05,1.59e-06,0.0,0 STARLINK-6043,1 56464U 23064S   24005.21641463  .00000159  00000-0  21140-4 0  9995,2 56464  70.0002 347.5270 0002690 258.3342 101.7515 14.98328272 36609,6950.198,96.107,573.933,570.194,0.0
56464.0,STARLINK-6043,PAYLOAD,2024-01-05 08:23:54,14.98327828,0.0002762,70.0001,347.1899,261.8336,98.251,2.3166e-05,1.83e-06,0.0,0 STARLINK-6043,1 56464U 23064S   24005.34993509  .00000183  00000-0  23166-4 0  9997,2 56464  70.0001 347.1899 0002762 261.8336  98.2510 14.98327828 36266,6950.2,96.107,573.984,570.145,0.0
56464.0,STARLINK-6043,PAYLOAD,2024-01-06 08:25:54,14.98333682,0.0002819,69.9999,344.6647,266.5543,93.5294,9.8238e-06,2.4e-07,0.0,0 STARLINK-6043,1 56464U 23064S   24006.35133071  .00000024  00000-0  98238-5 0  9996,2 56464  69.9999 344.6647 0002819 266.5543  93.5294 14.98333682 36775,6950.182,96.107,574.006,570.087,0.0
56464.0,STARLINK-6043,PAYLOAD,2024-01-07 08:27:56,14.98328693,0.0002799,70.0,342.1397,267.193,92.8909,3.3185e-06,-5.3e-07,0.0,0 STARLINK-6043,1 56464U 23064S   24007.35273349 -.00000053  00000-0  33185-5 0  9993,2 56464  70.0000 342.1397 0002799 267.1930  92.8909 14.98328693 36928,6950.197,96.107,574.007,570.117,0.0
56464.0,STARLINK-6043,PAYLOAD,2024-01-07 22:53:08,14.98331663,0.0002804,70.0,340.6246,270.3155,89.7683,-1.0387e-05,-2.17e-06,0.0,0 STARLINK-6043,1 56464U 23064S   24007.95357203 -.00000217  00000-0 -10387-4 0  9992,2 56464  70.0000 340.6246 0002804 270.3155  89.7683 14.98331663 36651,6950.188,96.107,574.002,570.104,0.0
56464.0,STARLINK-6043,PAYLOAD,2024-01-08 08:29:56,14.98334382,0.0002765,70.0001,339.6145,268.5967,91.4875,2.4356e-05,1.98e-06,0.0,0 STARLINK-6043,1 56464U 23064S   24008.35412864  .00000198  00000-0  24356-4 0  9999,2 56464  70.0001 339.6145 0002765 268.5967  91.4875 14.98334382 37075,6950.179,96.107,573.966,570.123,0.0
56464.0,STARLINK-6043,PAYLOAD,2024-01-08 22:55:09,14.98329304,0.0002686,70.0001,338.0996,264.0891,95.9962,3.7076e-05,3.49e-06,0.0,0 STARLINK-6043,1 56464U 23064S   24008.95497028  .00000349  00000-0  37076-4 0  9991,2 56464  70.0001 338.0996 0002686 264.0891  95.9962 14.98329304 36805,6950.195,96.107,573.927,570.193,0.0
56464.0,STARLINK-6043,PAYLOAD,2024-01-09 06:55:49,14.98329952,0.0002673,70.0003,337.2584,260.6567,99.429,3.945e-05,3.78e-06,0.0,0 STARLINK-6043,1 56464U 23064S   24009.28876968  .00000378  00000-0  39450-4 0  9992,2 56464  70.0003 337.2584 0002673 260.6567  99.4290 14.98329952 36856,6950.193,96.107,573.916,570.2,0.0
56464.0,STARLINK-6043,PAYLOAD,2024-01-10 05:21:42,14.98328583,0.0002605,70.0009,334.9031,247.2917,112.7967,-2.5003e-05,-3.91e-06,0.0,0 STARLINK-6043,1 56464U 23064S   24010.22341187 -.00000391  00000-0 -25003-4 0  9994,2 56464  70.0009 334.9031 0002605 247.2917 112.7967 14.98328583 37353,6950.197,96.107,573.873,570.252,0.0
56464.0,STARLINK-6043,PAYLOAD,2024-01-10 06:57:50,14.98329638,0.000278,70.0,334.7325,269.8444,90.2396,1.0203e-05,2.9e-07,0.0,0 STARLINK-6043,1 56464U 23064S   24010.29017116  .00000029  00000-0  10203-4 0  9995,2 56464  70.0000 334.7325 0002780 269.8444  90.2396 14.98329638 37007,6950.194,96.107,573.991,570.127,0.0
56464.0,STARLINK-6043,PAYLOAD,2024-01-11 06:59:51,14.983299,0.0002656,70.0003,332.2082,262.8881,97.1976,1.7358e-05,1.14e-06,0.0,0 STARLINK-6043,1 56464U 23064S   24011.29157165  .00000114  00000-0  17358-4 0  9998,2 56464  70.0003 332.2082 0002656 262.8881  97.1976 14.98329900 37511,6950.193,96.107,573.904,570.212,0.0
56464.0,STARLINK-6043,PAYLOAD,2024-01-11 21:25:04,14.98327084,0.0002506,70.0006,330.6912,257.9983,102.0896,5.37e-05,5.48e-06,0.0,0 STARLINK-6043,1 56464U 23064S   24011.89241097  .00000548  00000-0  53700-4 0  9994,2 56464  70.0006 330.6912 0002506 257.9983 102.0896 14.98327084 37248,6950.202,96.107,573.809,570.325,0.0
56464.0,STARLINK-6043,PAYLOAD,2024-01-12 07:01:52,14.9833167,0.0002507,70.0003,329.6816,255.7426,104.3455,7.7317e-05,8.3e-06,0.0,0 STARLINK-6043,1 56464U 23064S   24012.29296911  .00000830  00000-0  77317-4 0  9998,2 56464  70.0003 329.6816 0002507 255.7426 104.3455 14.98331670 37663,6950.188,96.107,573.795,570.31,0.0
56464.0,STARLINK-6043,PAYLOAD,2024-01-12 19:50:57,14.983033,0.0002479,70.0007,328.3351,262.754,97.3337,0.0004629,5.431e-05,0.0,0 STARLINK-6043,1 56464U 23064S   24012.82705161  .00005431  00000-0  46290-3 0  9996,2 56464  70.0007 328.3351 0002479 262.7540  97.3337 14.98303300 37748,6950.275,96.109,573.863,570.417,0.0
56464.0,STARLINK-6043,PAYLOAD,2024-01-12 23:03:13,14.9831937,0.0002582,70.0006,327.9982,264.8604,95.226,0.00015344,1.738e-05,0.0,0 STARLINK-6043,1 56464U 23064S   24012.96057396  .00001738  00000-0  15344-3 0  9993,2 56464  70.0006 327.9982 0002582 264.8604  95.2260 14.98319370 37400,6950.226,96.108,573.885,570.296,0.0
56464.0,STARLINK-6043,PAYLOAD,2024-01-13 07:03:53,14.98320422,0.0002566,70.0005,327.1567,264.2254,95.8612,0.00017893,2.042e-05,0.0,0 STARLINK-6043,1 56464U 23064S   24013.29437444  .00002042  00000-0  17893-3 0  9996,2 56464  70.0005 327.1567 0002566 264.2254  95.8612 14.98320422 37819,6950.223,96.108,573.871,570.304,0.0
56464.0,STARLINK-6043,PAYLOAD,2024-01-14 03:53:37,14.98378845,0.0002792,70.0003,324.9688,260.8718,99.2125,-0.00079403,-9.566e-05,0.0,0 STARLINK-6043,1 56464U 23064S   24014.16224011 -.00009566  00000-0 -79403-3 0  9992,2 56464  70.0003 324.9688 0002792 260.8718  99.2125 14.98378845 37947,6950.042,96.104,573.847,569.966,0.0
56464.0,STARLINK-6043,PAYLOAD,2024-01-14 05:29:45,14.98349814,0.0002648,70.0004,324.8006,265.8478,94.2379,-0.00024028,-2.96e-05,0.0,0 STARLINK-6043,1 56464U 23064S   24014.22900461 -.00002960  00000-0 -24028-3 0  9993,2 56464  70.0004 324.8006 0002648 265.8478  94.2379 14.98349814 37950,6950.132,96.106,573.837,570.156,0.0
56464.0,STARLINK-6043,PAYLOAD,2024-01-14 21:31:07,14.98329445,0.0002591,70.0006,323.1174,260.9962,99.0904,6.2476e-05,6.53e-06,0.0,0 STARLINK-6043,1 56464U 23064S   24014.89660922  .00000653  00000-0  62476-4 0  9996,2 56464  70.0006 323.1174 0002591 260.9962  99.0904 14.98329445 37697,6950.195,96.107,573.86,570.259,0.0
56464.0,STARLINK-6043,PAYLOAD,2024-01-15 03:55:39,14.98330422,0.0002549,70.0007,322.4442,261.6163,98.4707,7.2666e-05,7.74e-06,0.0,0 STARLINK-6043,1 56464U 23064S   24015.16364836  .00000774  00000-0  72666-4 0  9998,2 56464  70.0007 322.4442 0002549 261.6163  98.4707 14.98330422 38098,6950.192,96.107,573.828,570.285,0.0
56464.0,STARLINK-6043,PAYLOAD,2024-01-15 05:31:47,14.9833218,0.0002297,70.001,322.2761,254.8096,105.281,0.00010434,1.152e-05,0.0,0 STARLINK-6043,1 56464U 23064S   24015.23040628  .00001152  00000-0  10434-3 0  9991,2 56464  70.0010 322.2761 0002297 254.8096 105.2810 14.98332180 37749,6950.186,96.107,573.648,570.455,0.0
56464.0,STARLINK-6043,PAYLOAD,2024-01-15 23:09:15,14.98414261,0.0002588,70.0026,320.4287,231.0985,128.9944,-0.0014703,-0.0001763,0.0,0 STARLINK-6043,1 56464U 23064S   24015.96476048 -.00017630  00000-0 -14703-2 0  9992,2 56464  70.0026 320.4287 0002588 231.0985 128.9944 14.98414261 38210,6949.932,96.102,573.596,569.999,0.0
56464.0,STARLINK-6043,PAYLOAD,2024-01-16 05:33:48,14.98365382,0.000257,70.0012,319.7524,253.5923,106.4953,-0.00090637,-0.000109,0.0,0 STARLINK-6043,1 56464U 23064S   24016.23180964 -.00010900  00000-0 -90637-3 0  9996,2 56464  70.0012 319.7524 0002570 253.5923 106.4953 14.98365382 38256,6950.083,96.105,573.735,570.162,0.0
56464.0,STARLINK-6043,PAYLOAD,2024-01-16 19:59:01,14.98332572,0.0002883,69.9998,318.2361,263.475,96.6081,-5.1017e-05,-7.02e-06,0.0,0 STARLINK-6043,1 56464U 23064S   24016.83265160 -.00000702  00000-0 -51017-4 0  9993,2 56464  69.9998 318.2361 0002883 263.4750  96.6081 14.98332572 38341,6950.185,96.107,574.054,570.046,0.0
56464.0,STARLINK-6043,PAYLOAD,2024-01-16 21:35:09,14.98332831,0.0002878,69.9998,318.0676,262.7768,97.3064,-3.7176e-05,-5.37e-06,0.0,0 STARLINK-6043,1 56464U 23064S   24016.89941080 -.00000537  00000-0 -37176-4 0  9997,2 56464  69.9998 318.0676 0002878 262.7768  97.3064 14.98332831 37990,6950.184,96.107,574.049,570.049,0.0
